NORAD_CAT_ID,OBJECT_NAME,OBJECT_TYPE,EPOCH,MEAN_MOTION,ECCENTRICITY,INCLINATION,RA_OF_ASC_NODE,ARG_OF_PERICENTER,MEAN_ANOMALY,BSTAR,MEAN_MOTION_DOT,MEAN_MOTION_DDOT,TLE_LINE0,TLE_LINE1,TLE_LINE2,SEMIMAJOR_AXIS,PERIOD,APOGEE,PERIGEE,DECAYED
52661.0,STARLINK-4042,PAYLOAD,2022-08-01 14:00:01,15.08839139,0.0001516,53.2152,302.3548,66.4239,61.2239,0.00032089,4.823e-05,0.0,0 STARLINK-4042,1 52661U 22053F   22213.58334491  .00004823  00000-0  32089-3 0  9991,2 52661  53.2152 302.3548 0001516  66.4239  61.2239 15.08839139 12359,6917.8830000000025,95.438,540.797,538.6990000000002,0.0
52661.0,STARLINK-4042,PAYLOAD,2022-08-01 22:00:00,15.08861432,0.0001436,53.2148,300.8574,68.2055,71.0356,-0.0019182,-0.00030704,0.0,0 STARLINK-4042,1 52661U 22053F   22213.91667824 -.00030704  00000-0 -19182-2 0  9994,2 52661  53.2148 300.8574 0001436  68.2055  71.0356 15.08861432  1306,6917.815,95.436,540.673,538.686,0.0
52661.0,STARLINK-4042,PAYLOAD,2022-08-02 14:00:01,15.08827978,0.0001435,53.2147,297.8655,63.6253,98.839,-0.00030679,-5.166e-05,0.0,0 STARLINK-4042,1 52661U 22053F   22214.58334491 -.00005166  00000-0 -30679-3 0  9998,2 52661  53.2147 297.8655 0001435  63.6253  98.8390 15.08827978 12504,6917.917,95.438,540.775,538.789,0.0
52661.0,STARLINK-4042,PAYLOAD,2022-08-03 12:00:00,15.08841044,0.0001443999999999,53.2144,293.7498,62.9742,41.3498,-0.00087882,-0.00014247,0.0,0 STARLINK-4042,1 52661U 22053F   22215.50001157 -.00014247  00000-0 -87882-3 0  9999,2 52661  53.2144 293.7498 0001444  62.9742  41.3498 15.08841044 12643,6917.877,95.437,540.741,538.743,0.0
52661.0,STARLINK-4042,PAYLOAD,2022-08-03 14:00:01,15.0882409,0.0001462,53.2146,293.376,60.5613,136.6651,0.0014770999999999,0.00023288,0.0,0 STARLINK-4042,1 52661U 22053F   22215.58334491  .00023288  00000-0  14771-2 0  9996,2 52661  53.2146 293.3760 0001462  60.5613 136.6651 15.08824090  1306,6917.929,95.439,540.805,538.783,0.0
52661.0,STARLINK-4042,PAYLOAD,2022-08-03 22:00:01,15.08854097,0.0001353,53.2145,291.8781,62.913,145.9624,-0.0016057,-0.00025761,0.0,0 STARLINK-4042,1 52661U 22053F   22215.91668981 -.00025761  00000-0 -16057-2 0  9996,2 52661  53.2145 291.8781 0001353  62.9130 145.9624 15.08854097  1303,6917.837,95.437,540.638,538.766,0.0
52661.0,STARLINK-4042,PAYLOAD,2022-08-04 06:00:00,15.08852225,0.000138,53.2148,290.3812,68.607,151.8025,0.00010704,1.417e-05,0.0,0 STARLINK-4042,1 52661U 22053F   22216.25001157  .00001417  00000-0  10704-3 0  9994,2 52661  53.2148 290.3812 0001380  68.6070 151.8025 15.08852225 12754,6917.843000000003,95.437,540.663,538.753,0.0
52661.0,STARLINK-4042,PAYLOAD,2022-08-04 14:00:01,15.08844916,0.000148,53.2148,288.8863,57.7584,174.2655,-0.0002762,-4.682e-05,0.0,0 STARLINK-4042,1 52661U 22053F   22216.58334491 -.00004682  00000-0 -27620-3 0  9994,2 52661  53.2148 288.8863 0001480  57.7584 174.2655 15.08844916  1307,6917.865,95.437,540.754,538.707,0.0
52661.0,STARLINK-4042,PAYLOAD,2022-08-04 22:00:00,15.08841835,0.0001286999999999,53.215,287.3884,58.9221,184.703,-0.0017945999999999,-0.00028737,0.0,0 STARLINK-4042,1 52661U 22053F   22216.91667824 -.00028737  00000-0 -17946-2 0  9996,2 52661  53.2150 287.3884 0001287  58.9221 184.7030 15.08841835  1303,6917.875,95.437,540.63,538.849,0.0
52661.0,STARLINK-4042,PAYLOAD,2022-08-05 04:00:00,15.08823555,0.0001286999999999,53.2152,286.2654,65.2363,97.0795,0.0016914999999999,0.00026723,0.0,0 STARLINK-4042,1 52661U 22053F   22217.16667824  .00026723  00000-0  16915-2 0  9990,2 52661  53.2152 286.2654 0001287  65.2363  97.0795 15.08823555 12895,6917.931,95.439,540.686,538.905,0.0
52661.0,STARLINK-4042,PAYLOAD,2022-08-05 14:00:01,15.0881856,0.000146,53.2153,284.3967,54.3538,212.5166,0.002332,0.00036999,0.0,0 STARLINK-4042,1 52661U 22053F   22217.58335648  .00036999  00000-0  23320-2 0  9996,2 52661  53.2153 284.3967 0001460  54.3538 212.5166 15.08818560  1308,6917.946,95.439,540.821,538.8009999999998,0.0
52661.0,STARLINK-4042,PAYLOAD,2022-08-05 20:00:01,15.08857502,0.0001358,53.2152,283.2734,56.137,129.4165,-0.0019760999999999,-0.00031615,0.0,0 STARLINK-4042,1 52661U 22053F   22217.83335648 -.00031615  00000-0 -19761-2 0  9990,2 52661  53.2152 283.2734 0001358  56.1370 129.4165 15.08857502 12998,6917.8269999999975,95.436,540.631,538.752,0.0
52661.0,STARLINK-4042,PAYLOAD,2022-08-05 22:00:00,15.08847424,0.0001314,53.2155,282.8988,58.338,220.0565,-0.00086986,-0.00014108,0.0,0 STARLINK-4042,1 52661U 22053F   22217.91667824 -.00014108  00000-0 -86986-3 0  9995,2 52661  53.2155 282.8988 0001314  58.3380 220.0565 15.08847424  1301,6917.858,95.437,540.632,538.814,0.0
52661.0,STARLINK-4042,PAYLOAD,2022-08-06 11:04:44,15.0884303,0.0001398,53.2162,280.4534,64.277,295.8366,-6.5638e-06,-3.92e-06,0.0,0 STARLINK-4042,1 52661U 22053F   22218.46163087 -.00000392  00000-0 -65638-5 0  9991,2 52661  53.2162 280.4534 0001398  64.2770 295.8366 15.08843030 13098,6917.871,95.437,540.703,538.769,0.0
52661.0,STARLINK-4042,PAYLOAD,2022-08-06 14:00:01,15.0881602,0.0001511,53.2156,279.9074,54.9324,246.6714,0.0021436,0.0003396999999999,0.0,0 STARLINK-4042,1 52661U 22053F   22218.58334491  .00033970  00000-0  21436-2 0  9994,2 52661  53.2156 279.9074 0001511  54.9324 246.6714 15.08816020  1302,6917.954000000002,95.439,540.864,538.773,0.0
52661.0,STARLINK-4042,PAYLOAD,2022-08-06 22:00:00,15.08836984,0.0001357,53.2156,278.4095,60.0666,253.1213,-0.00034526,-5.778e-05,0.0,0 STARLINK-4042,1 52661U 22053F   22218.91667824 -.00005778  00000-0 -34526-3 0  9992,2 52661  53.2156 278.4095 0001357  60.0666 253.1213 15.08836984  1302,6917.89,95.438,540.693,538.816,0.0
52661.0,STARLINK-4042,PAYLOAD,2022-08-07 10:55:32,15.08835969,0.0001382,53.2157,275.9926,60.3615,299.7515,3.8134e-05,3.19e-06,0.0,0 STARLINK-4042,1 52661U 22053F   22219.45523436  .00000319  00000-0  38134-4 0  9996,2 52661  53.2157 275.9926 0001382  60.3615 299.7515 15.08835969 13242,6917.893,95.438,540.714,538.802,0.0
52661.0,STARLINK-4042,PAYLOAD,2022-08-07 12:00:00,15.08833571,0.0001495,53.2155,275.7922,56.2784,187.1988,0.00071571,0.00011119,0.0,0 STARLINK-4042,1 52661U 22053F   22219.50001157  .00011119  00000-0  71571-3 0  9994,2 52661  53.2155 275.7922 0001495  56.2784 187.1988 15.08833571 13241,6917.9,95.438,540.799,538.731,0.0
52661.0,STARLINK-4042,PAYLOAD,2022-08-07 22:00:00,15.08839562,0.0001401,53.2153,273.9203,62.4056,285.5739,-0.0016672999999999,-0.00026725,0.0,0 STARLINK-4042,1 52661U 22053F   22219.91667824 -.00026725  00000-0 -16673-2 0  9990,2 52661  53.2153 273.9203 0001401  62.4056 285.5739 15.08839562  1306,6917.882,95.438,540.716,538.778,0.0
52661.0,STARLINK-4042,PAYLOAD,2022-08-08 14:00:01,15.08814804,0.0001557,53.2149,270.9293,57.4715,313.7503,0.0029609,0.00047117,0.0,0 STARLINK-4042,1 52661U 22053F   22220.58335648  .00047117  00000-0  29609-2 0  9990,2 52661  53.2149 270.9293 0001557  57.4715 313.7503 15.08814804 13415,6917.956999999999,95.439,540.9,538.745,0.0
52661.0,STARLINK-4042,PAYLOAD,2022-08-08 22:00:00,15.08834739,0.0001419999999999,53.2146,269.4313,64.0925,318.6613,0.0013125,0.00020659,0.0,0 STARLINK-4042,1 52661U 22053F   22220.91667824  .00020659  00000-0  13125-2 0  9999,2 52661  53.2146 269.4313 0001420  64.0925 318.6613 15.08834739  1304,6917.896,95.438,540.744,538.779,0.0
52661.0,STARLINK-4042,PAYLOAD,2022-08-09 04:00:00,15.08860665,0.0001409999999999,53.2146,268.309,67.4968,233.9441,-0.0010396,-0.00016804,0.0,0 STARLINK-4042,1 52661U 22053F   22221.16667824 -.00016804  00000-0 -10396-2 0  9993,2 52661  53.2146 268.3090 0001410  67.4968 233.9441 15.08860665 13495,6917.816999999999,95.436,540.658,538.707,0.0
52661.0,STARLINK-4042,PAYLOAD,2022-08-09 14:00:01,15.08809958,0.000149,53.2141,266.4403,54.9953,350.9607,0.001673,0.00026416,0.0,0 STARLINK-4042,1 52661U 22053F   22221.58334491  .00026416  00000-0  16730-2 0  9996,2 52661  53.2141 266.4403 0001490  54.9953 350.9607 15.08809958  1309,6917.972,95.439,540.868,538.806,0.0
52661.0,STARLINK-4042,PAYLOAD,2022-08-09 20:00:01,15.08833632,0.000145,53.2139,265.3167,60.0967,264.5362,-0.0035318,-0.0005605,0.0,0 STARLINK-4042,1 52661U 22053F   22221.83334491 -.00056050  00000-0 -35318-2 0  9996,2 52661  53.2139 265.3167 0001450  60.0967 264.5362 15.08833632 13598,6917.9,95.438,540.768,538.762,0.0
52661.0,STARLINK-4042,PAYLOAD,2022-08-09 22:00:00,15.0879777,0.0001409999999999,53.2139,264.9422,63.2693,354.2668,0.00055453,8.538e-05,0.0,0 STARLINK-4042,1 52661U 22053F   22221.91667824  .00008538  00000-0  55453-3 0  9993,2 52661  53.2139 264.9422 0001410  63.2693 354.2668 15.08797770  1308,6918.009,95.44,540.85,538.899,0.0
52661.0,STARLINK-4042,PAYLOAD,2022-08-10 04:00:00,15.08813521,0.0001491,53.2139,263.82,66.3747,269.8183,8.8799e-05,1.125e-05,0.0,0 STARLINK-4042,1 52661U 22053F   22222.16667824  .00001125  00000-0  88799-4 0  9996,2 52661  53.2139 263.8200 0001491  66.3747 269.8183 15.08813521 13649,6917.9609999999975,95.439,540.8580000000002,538.795,0.0
52661.0,STARLINK-4042,PAYLOAD,2022-08-10 14:00:01,15.08790704,0.0001604,53.2134,261.9513,55.549,25.0987,0.0027527,0.00043734,0.0,0 STARLINK-4042,1 52661U 22053F   22222.58334491  .00043734  00000-0  27527-2 0  9995,2 52661  53.2134 261.9513 0001604  55.5490  25.0987 15.08790704  1302,6918.031,95.441,541.006,538.786,0.0
52661.0,STARLINK-4042,PAYLOAD,2022-08-10 22:00:00,15.08795913,0.0001476999999999,53.2135,260.4531,62.1405,30.0671,0.001791,0.00028296,0.0,0 STARLINK-4042,1 52661U 22053F   22222.91667824  .00028296  00000-0  17910-2 0  9992,2 52661  53.2135 260.4531 0001477  62.1405  30.0671 15.08795913  1308,6918.015,95.44,540.9019999999998,538.8580000000002,0.0
52661.0,STARLINK-4042,PAYLOAD,2022-08-11 14:00:01,15.08803059,0.0001681,53.2132,257.4619,54.2728,61.0642,0.0024611,0.00039058,0.0,0 STARLINK-4042,1 52661U 22053F   22223.58334491  .00039058  00000-0  24611-2 0  9991,2 52661  53.2132 257.4619 0001681  54.2728  61.0642 15.08803059  1308,6917.993,95.44,541.021,538.695,0.0
